{"type": "FeatureCollection", "features": [ {"type": "Feature", "properties": {"norad_id": 34962, "name": "COSMOS 2251 DEB", "group": "cosmos-2251-debris", "lat": -56.1094759691923, "lon": 27.695723485644002, "alt_km": 736.1113375868099, "timestamp": "2025-12-18T13:51:50.081570+00:00", "meta": {"OBJECT_NAME": "COSMOS 2251 DEB", "OBJECT_ID": "1993-036AER", "EPOCH": "2025-12-18T06:07:06.866112", "MEAN_MOTION": 14.4653317, "ECCENTRICITY": 0.00188109, "INCLINATION": 74.0283, "RA_OF_ASC_NODE": 183.0618, "ARG_OF_PERICENTER": 295.8905, "MEAN_ANOMALY": 64.0314, "EPHEMERIS_TYPE": 0, "CLASSIFICATION_TYPE": "U", "NORAD_CAT_ID": 34962, "ELEMENT_SET_NO": 999, "REV_AT_EPOCH": 87658, "BSTAR": 0.00033925754, "MEAN_MOTION_DOT": 1.198e-05, "MEAN_MOTION_DDOT": 0}, "tle": {"line1": "1 34962U 93036AER 25352.25494058  .00001198  00000+0  33926-3 0  9993", "line2": "2 34962  74.0283 183.0618 0018810 295.8905  64.0314 14.46533170876589"}}, "geometry": {"type": "Point", "coordinates": [27.695723485644002, -56.1094759691923]}}, {"type": "Feature", "properties": {"norad_id": 34963, "name": "COSMOS 2251 DEB", "group": "cosmos-2251-debris", "lat": -51.39263111830826, "lon": -127.33719101611231, "alt_km": 698.6942027790901, "timestamp": "2025-12-18T13:51:50.081581+00:00", "meta": {"OBJECT_NAME": "COSMOS 2251 DEB", "OBJECT_ID": "1993-036AES", "EPOCH": "2025-12-17T20:14:27.041856", "MEAN_MOTION": 14.51131283, "ECCENTRICITY": 0.0042339, "INCLINATION": 74.1719, "RA_OF_ASC_NODE": 33.2219, "ARG_OF_PERICENTER": 228.7503, "MEAN_ANOMALY": 131.0009, "EPHEMERIS_TYPE": 0, "CLASSIFICATION_TYPE": "U", "NORAD_CAT_ID": 34963, "ELEMENT_SET_NO": 999, "REV_AT_EPOCH": 86875, "BSTAR": 0.00095062932, "MEAN_MOTION_DOT": 3.789e-05, "MEAN_MOTION_DDOT": 0}, "tle": {"line1": "1 34963U 93036AES 25351.84336854  .00003789  00000+0  95063-3 0  9995", "line2": "2 34963  74.1719  33.2219 0042339 228.7503 131.0009 14.51131283868751"}}, "geometry": {"type": "Point", "coordinates": [-127.33719101611231, -51.39263111830826]}}, {"type": "Feature", "properties": {"norad_id": 34964, "name": "COSMOS 2251 DEB", "group": "cosmos-2251-debris", "lat": -73.04149326690474, "lon": -92.83349208431561, "alt_km": 870.4750821117732, "timestamp": "2025-12-18T13:51:50.081591+00:00", "meta": {"OBJECT_NAME": "COSMOS 2251 DEB", "OBJECT_ID": "1993-036AET", "EPOCH": "2025-12-18T07:25:04.519776", "MEAN_MOTION": 14.00628567, "ECCENTRICITY": 0.02123167, "INCLINATION": 73.9712, "RA_OF_ASC_NODE": 338.1457, "ARG_OF_PERICENTER": 195.4091, "MEAN_ANOMALY": 164.0515, "EPHEMERIS_TYPE": 0, "CLASSIFICATION_TYPE": "U", "NORAD_CAT_ID": 34964, "ELEMENT_SET_NO": 999, "REV_AT_EPOCH": 84556, "BSTAR": 0.00089791859, "MEAN_MOTION_DOT": 1.6e-05, "MEAN_MOTION_DDOT": 0}, "tle": {"line1": "1 34964U 93036AET 25352.30908009  .00001600  00000+0  89792-3 0  9997", "line2": "2 34964  73.9712 338.1457 0212316 195.4091 164.0515 14.00628567845561"}}, "geometry": {"type": "Point", "coordinates": [-92.83349208431561, -73.04149326690474]}}, {"type": "Feature", "properties": {"norad_id": 34965, "name": "COSMOS 2251 DEB", "group": "cosmos-2251-debris", "lat": -73.75538108891054, "lon": 38.59875356422002, "alt_km": 720.3636991516378, "timestamp": "2025-12-18T13:51:50.081601+00:00", "meta": {"OBJECT_NAME": "COSMOS 2251 DEB", "OBJECT_ID": "1993-036AEU", "EPOCH": "2025-12-17T15:03:41.961600", "MEAN_MOTION": 14.48719577, "ECCENTRICITY": 0.00264531, "INCLINATION": 74.0515, "RA_OF_ASC_NODE": 119.3168, "ARG_OF_PERICENTER": 245.8821, "MEAN_ANOMALY": 113.9572, "EPHEMERIS_TYPE": 0, "CLASSIFICATION_TYPE": "U", "NORAD_CAT_ID": 34965, "ELEMENT_SET_NO": 999, "REV_AT_EPOCH": 87184, "BSTAR": 0.00029308961, "MEAN_MOTION_DOT": 1.082e-05, "MEAN_MOTION_DDOT": 0}, "tle": {"line1": "1 34965U 93036AEU 25351.62756900  .00001082  00000+0  29309-3 0  9995", "line2": "2 34965  74.0515 119.3168 0026453 245.8821 113.9572 14.48719577871849"}}, "geometry": {"type": "Point", "coordinates": [38.59875356422002, -73.75538108891054]}}, {"type": "Feature", "properties": {"norad_id": 34967, "name": "COSMOS 2251 DEB", "group": "cosmos-2251-debris", "lat": 73.94382799225251, "lon": -22.896890068924527, "alt_km": 724.6092824410916, "timestamp": "2025-12-18T13:51:50.081623+00:00", "meta": {"OBJECT_NAME": "COSMOS 2251 DEB", "OBJECT_ID": "1993-036AEW", "EPOCH": "2025-12-13T00:27:20.673792", "MEAN_MOTION": 14.44269018, "ECCENTRICITY": 0.00380101, "INCLINATION": 73.9933, "RA_OF_ASC_NODE": 253.3374, "ARG_OF_PERICENTER": 39.5345, "MEAN_ANOMALY": 320.8573, "EPHEMERIS_TYPE": 0, "CLASSIFICATION_TYPE": "U", "NORAD_CAT_ID": 34967, "ELEMENT_SET_NO": 999, "REV_AT_EPOCH": 64961, "BSTAR": 0.0011451852, "MEAN_MOTION_DOT": 3.946e-05, "MEAN_MOTION_DDOT": 0}, "tle": {"line1": "1 34967U 93036AEW 25347.01898928  .00003946  00000+0  11452-2 0  9992", "line2": "2 34967  73.9933 253.3374 0038010  39.5345 320.8573 14.44269018649616"}}, "geometry": {"type": "Point", "coordinates": [-22.896890068924527, 73.94382799225251]}}, {"type": "Feature", "properties": {"norad_id": 34968, "name": "COSMOS 2251 DEB", "group": "cosmos-2251-debris", "lat": -72.53676451746543, "lon": 121.41331576897913, "alt_km": 703.6372056315577, "timestamp": "2025-12-18T13:51:50.081636+00:00", "meta": {"OBJECT_NAME": "COSMOS 2251 DEB", "OBJECT_ID": "1993-036AEX", "EPOCH": "2025-12-18T02:47:14.790624", "MEAN_MOTION": 14.59415645, "ECCENTRICITY": 0.00869026, "INCLINATION": 74.0387, "RA_OF_ASC_NODE": 236.821, "ARG_OF_PERICENTER": 355.8378, "MEAN_ANOMALY": 4.2053, "EPHEMERIS_TYPE": 0, "CLASSIFICATION_TYPE": "U", "NORAD_CAT_ID": 34968, "ELEMENT_SET_NO": 999, "REV_AT_EPOCH": 88556, "BSTAR": 0.00011312461, "MEAN_MOTION_DOT": 5.32e-06, "MEAN_MOTION_DDOT": 0}, "tle": {"line1": "1 34968U 93036AEX 25352.11614341  .00000532  00000+0  11312-3 0  9999", "line2": "2 34968  74.0387 236.8210 0086902 355.8378   4.2053 14.59415645885567"}}, "geometry": {"type": "Point", "coordinates": [121.41331576897913, -72.53676451746543]}}, {"type": "Feature", "properties": {"norad_id": 34969, "name": "COSMOS 2251 DEB", "group": "cosmos-2251-debris", "lat": 33.9886182704187, "lon": -178.66631388527802, "alt_km": 729.0038912298005, "timestamp": "2025-12-18T13:51:50.081646+00:00", "meta": {"OBJECT_NAME": "COSMOS 2251 DEB", "OBJECT_ID": "1993-036AEY", "EPOCH": "2025-12-15T18:08:26.126880", "MEAN_MOTION": 14.32260529, "ECCENTRICITY": 0.00734759, "INCLINATION": 74.0142, "RA_OF_ASC_NODE": 17.6317, "ARG_OF_PERICENTER": 150.1137, "MEAN_ANOMALY": 210.4241, "EPHEMERIS_TYPE": 0, "CLASSIFICATION_TYPE": "U", "NORAD_CAT_ID": 34969, "ELEMENT_SET_NO": 999, "REV_AT_EPOCH": 65180, "BSTAR": 0.00024953546, "MEAN_MOTION_DOT": 6.68e-06, "MEAN_MOTION_DDOT": 0}, "tle": {"line1": "1 34969U 93036AEY 25349.75585795  .00000668  00000+0  24954-3 0  9992", "line2": "2 34969  74.0142  17.6317 0073475 150.1137 210.4241 14.32260529651808"}}, "geometry": {"type": "Point", "coordinates": [-178.66631388527802, 33.9886182704187]}}, {"type": "Feature", "properties": {"norad_id": 34971, "name": "COSMOS 2251 DEB", "group": "cosmos-2251-debris", "lat": -62.753752097938076, "lon": 127.82589586286628, "alt_km": 730.2135142089755, "timestamp": "2025-12-18T13:51:50.081685+00:00", "meta": {"OBJECT_NAME": "COSMOS 2251 DEB", "OBJECT_ID": "1993-036AFA", "EPOCH": "2025-12-16T13:44:10.461120", "MEAN_MOTION": 14.55639723, "ECCENTRICITY": 0.00694632, "INCLINATION": 73.9787, "RA_OF_ASC_NODE": 277.721, "ARG_OF_PERICENTER": 142.4374, "MEAN_ANOMALY": 40.2269, "EPHEMERIS_TYPE": 0, "CLASSIFICATION_TYPE": "U", "NORAD_CAT_ID": 34971, "ELEMENT_SET_NO": 999, "REV_AT_EPOCH": 66228, "BSTAR": 0.00015151629, "MEAN_MOTION_DOT": 6.53e-06, "MEAN_MOTION_DDOT": 0}, "tle": {"line1": "1 34971U 93036AFA 25350.57234330  .00000653  00000+0  15152-3 0  9997", "line2": "2 34971  73.9787 277.7210 0069463 142.4374  40.2269 14.55639723662288"}}, "geometry": {"type": "Point", "coordinates": [127.82589586286628, -62.753752097938076]}}, {"type": "Feature", "properties": {"norad_id": 34972, "name": "COSMOS 2251 DEB", "group": "cosmos-2251-debris", "lat": 38.55125640332722, "lon": -154.77306044335424, "alt_km": 635.5292335403728, "timestamp": "2025-12-18T13:51:50.081696+00:00", "meta": {"OBJECT_NAME": "COSMOS 2251 DEB", "OBJECT_ID": "1993-036AFB", "EPOCH": "2025-12-18T05:23:24.742752", "MEAN_MOTION": 14.72969956, "ECCENTRICITY": 0.00332471, "INCLINATION": 73.9903, "RA_OF_ASC_NODE": 39.1431, "ARG_OF_PERICENTER": 197.1269, "MEAN_ANOMALY": 231.2337, "EPHEMERIS_TYPE": 0, "CLASSIFICATION_TYPE": "U", "NORAD_CAT_ID": 34972, "ELEMENT_SET_NO": 999, "REV_AT_EPOCH": 87731, "BSTAR": 0.0010976522, "MEAN_MOTION_DOT": 7.082e-05, "MEAN_MOTION_DDOT": 0}, "tle": {"line1": "1 34972U 93036AFB 25352.22459193  .00007082  00000+0  10977-2 0  9990", "line2": "2 34972  73.9903  39.1431 0033247 197.1269 231.2337 14.72969956877318"}}, "geometry": {"type": "Point", "coordinates": [-154.77306044335424, 38.55125640332722]}}, {"type": "Feature", "properties": {"norad_id": 34976, "name": "COSMOS 2251 DEB", "group": "cosmos-2251-debris", "lat": -46.746350044128505, "lon": -82.8646472771134, "alt_km": 616.989656834663, "timestamp": "2025-12-18T13:51:50.081706+00:00", "meta": {"OBJECT_NAME": "COSMOS 2251 DEB", "OBJECT_ID": "1993-036AFF", "EPOCH": "2025-12-18T02:46:07.121280", "MEAN_MOTION": 14.76682106, "ECCENTRICITY": 0.00478221, "INCLINATION": 74.0573, "RA_OF_ASC_NODE": 295.7277, "ARG_OF_PERICENTER": 341.3704, "MEAN_ANOMALY": 33.1304, "EPHEMERIS_TYPE": 0, "CLASSIFICATION_TYPE": "U", "NORAD_CAT_ID": 34976, "ELEMENT_SET_NO": 999, "REV_AT_EPOCH": 88353, "BSTAR": 0.0012548314, "MEAN_MOTION_DOT": 8.924e-05, "MEAN_MOTION_DDOT": 0}, "tle": {"line1": "1 34976U 93036AFF 25352.11536020  .00008924  00000+0  12548-2 0  9999", "line2": "2 34976  74.0573 295.7277 0047822 341.3704  33.1304 14.76682106883533"}}, "geometry": {"type": "Point", "coordinates": [-82.8646472771134, -46.746350044128505]}}]}